{"type": "FeatureCollection", "features": [ {"type": "Feature", "properties": {"norad_id": 32316, "name": "FENGYUN 1C DEB", "group": "fengyun-1c-debris", "lat": 51.23175132299628, "lon": -155.0998135046662, "alt_km": 732.136086510046, "timestamp": "2025-12-12T09:49:09.017883+00:00", "meta": {"OBJECT_NAME": "FENGYUN 1C DEB", "OBJECT_ID": "1999-025CXH", "EPOCH": "2025-12-12T01:06:05.560416", "MEAN_MOTION": 14.51848634, "ECCENTRICITY": 0.002648, "INCLINATION": 99.5296, "RA_OF_ASC_NODE": 12.4151, "ARG_OF_PERICENTER": 331.5033, "MEAN_ANOMALY": 58.6376, "EPHEMERIS_TYPE": 0, "CLASSIFICATION_TYPE": "U", "NORAD_CAT_ID": 32316, "ELEMENT_SET_NO": 999, "REV_AT_EPOCH": 95767, "BSTAR": 0.0026414, "MEAN_MOTION_DOT": 0.00010644, "MEAN_MOTION_DDOT": 0}, "tle": {"line1": "1 32316U 99025CXH 25346.04589769  .00010644  00000+0  26414-2 0  9991", "line2": "2 32316  99.5296  12.4151 0026480 331.5033  58.6376 14.51848634957672"}}, "geometry": {"type": "Point", "coordinates": [-155.0998135046662, 51.23175132299628]}}, {"type": "Feature", "properties": {"norad_id": 32320, "name": "FENGYUN 1C DEB", "group": "fengyun-1c-debris", "lat": 56.5398647628936, "lon": -172.66412829237353, "alt_km": 726.1663637045885, "timestamp": "2025-12-12T09:49:09.017894+00:00", "meta": {"OBJECT_NAME": "FENGYUN 1C DEB", "OBJECT_ID": "1999-025CXM", "EPOCH": "2025-12-10T20:46:03.089856", "MEAN_MOTION": 14.36126259, "ECCENTRICITY": 0.0056153, "INCLINATION": 100.3739, "RA_OF_ASC_NODE": 201.5727, "ARG_OF_PERICENTER": 53.0201, "MEAN_ANOMALY": 307.61, "EPHEMERIS_TYPE": 0, "CLASSIFICATION_TYPE": "U", "NORAD_CAT_ID": 32320, "ELEMENT_SET_NO": 999, "REV_AT_EPOCH": 62146, "BSTAR": 0.0011581, "MEAN_MOTION_DOT": 3.377e-05, "MEAN_MOTION_DDOT": 0}, "tle": {"line1": "1 32320U 99025CXM 25344.86531354  .00003377  00000+0  11581-2 0  9995", "line2": "2 32320 100.3739 201.5727 0056153  53.0201 307.6100 14.36126259621465"}}, "geometry": {"type": "Point", "coordinates": [-172.66412829237353, 56.5398647628936]}}, {"type": "Feature", "properties": {"norad_id": 32322, "name": "FENGYUN 1C DEB", "group": "fengyun-1c-debris", "lat": -81.57341888772079, "lon": -35.03437234144024, "alt_km": 1448.6848834258108, "timestamp": "2025-12-12T09:49:09.017904+00:00", "meta": {"OBJECT_NAME": "FENGYUN 1C DEB", "OBJECT_ID": "1999-025CXP", "EPOCH": "2025-12-10T11:30:19.459296", "MEAN_MOTION": 13.34129815, "ECCENTRICITY": 0.04190414, "INCLINATION": 98.3701, "RA_OF_ASC_NODE": 226.9905, "ARG_OF_PERICENTER": 103.3403, "MEAN_ANOMALY": 261.4794, "EPHEMERIS_TYPE": 0, "CLASSIFICATION_TYPE": "U", "NORAD_CAT_ID": 32322, "ELEMENT_SET_NO": 999, "REV_AT_EPOCH": 60349, "BSTAR": 0.0015395433, "MEAN_MOTION_DOT": 1.229e-05, "MEAN_MOTION_DDOT": 0}, "tle": {"line1": "1 32322U 99025CXP 25344.47939189  .00001229  00000+0  15395-2 0  9993", "line2": "2 32322  98.3701 226.9905 0419041 103.3403 261.4794 13.34129815603490"}}, "geometry": {"type": "Point", "coordinates": [-35.03437234144024, -81.57341888772079]}}, {"type": "Feature", "properties": {"norad_id": 32323, "name": "FENGYUN 1C DEB", "group": "fengyun-1c-debris", "lat": 32.96512574138785, "lon": 124.01284475875538, "alt_km": 1016.7816524473501, "timestamp": "2025-12-12T09:49:09.017915+00:00", "meta": {"OBJECT_NAME": "FENGYUN 1C DEB", "OBJECT_ID": "1999-025CXQ", "EPOCH": "2025-12-11T19:53:55.961952", "MEAN_MOTION": 13.96527739, "ECCENTRICITY": 0.0155374, "INCLINATION": 98.5708, "RA_OF_ASC_NODE": 129.0851, "ARG_OF_PERICENTER": 212.3019, "MEAN_ANOMALY": 146.8558, "EPHEMERIS_TYPE": 0, "CLASSIFICATION_TYPE": "U", "NORAD_CAT_ID": 32323, "ELEMENT_SET_NO": 999, "REV_AT_EPOCH": 60257, "BSTAR": 0.0054384, "MEAN_MOTION_DOT": 8.293e-05, "MEAN_MOTION_DDOT": 0}, "tle": {"line1": "1 32323U 99025CXQ 25345.82911993  .00008293  00000+0  54384-2 0  9996", "line2": "2 32323  98.5708 129.0851 0155374 212.3019 146.8558 13.96527739602570"}}, "geometry": {"type": "Point", "coordinates": [124.01284475875538, 32.96512574138785]}}, {"type": "Feature", "properties": {"norad_id": 32324, "name": "FENGYUN 1C DEB", "group": "fengyun-1c-debris", "lat": -18.515978257065626, "lon": -95.08231404870625, "alt_km": 903.2557109968993, "timestamp": "2025-12-12T09:49:09.017925+00:00", "meta": {"OBJECT_NAME": "FENGYUN 1C DEB", "OBJECT_ID": "1999-025CXR", "EPOCH": "2025-12-11T05:36:55.669824", "MEAN_MOTION": 14.09142373, "ECCENTRICITY": 0.00500432, "INCLINATION": 99.5336, "RA_OF_ASC_NODE": 86.9016, "ARG_OF_PERICENTER": 28.2624, "MEAN_ANOMALY": 332.1243, "EPHEMERIS_TYPE": 0, "CLASSIFICATION_TYPE": "U", "NORAD_CAT_ID": 32324, "ELEMENT_SET_NO": 999, "REV_AT_EPOCH": 63977, "BSTAR": 0.00067335972, "MEAN_MOTION_DOT": 1.134e-05, "MEAN_MOTION_DDOT": 0}, "tle": {"line1": "1 32324U 99025CXR 25345.23397766  .00001134  00000+0  67336-3 0  9997", "line2": "2 32324  99.5336  86.9016 0050043  28.2624 332.1243 14.09142373639771"}}, "geometry": {"type": "Point", "coordinates": [-95.08231404870625, -18.515978257065626]}}, {"type": "Feature", "properties": {"norad_id": 32326, "name": "FENGYUN 1C DEB", "group": "fengyun-1c-debris", "lat": 45.21228294463972, "lon": 104.46700968527551, "alt_km": 715.0674481729993, "timestamp": "2025-12-12T09:49:09.017936+00:00", "meta": {"OBJECT_NAME": "FENGYUN 1C DEB", "OBJECT_ID": "1999-025CXT", "EPOCH": "2025-11-30T02:32:37.979232", "MEAN_MOTION": 13.69261307, "ECCENTRICITY": 0.03856265, "INCLINATION": 98.486, "RA_OF_ASC_NODE": 264.9459, "ARG_OF_PERICENTER": 173.0082, "MEAN_ANOMALY": 187.6669, "EPHEMERIS_TYPE": 0, "CLASSIFICATION_TYPE": "U", "NORAD_CAT_ID": 32326, "ELEMENT_SET_NO": 999, "REV_AT_EPOCH": 63009, "BSTAR": 0.00044957354, "MEAN_MOTION_DOT": 6.22e-06, "MEAN_MOTION_DDOT": 0}, "tle": {"line1": "1 32326U 99025CXT 25334.10599513  .00000622  00000+0  44957-3 0  9992", "line2": "2 32326  98.4860 264.9459 0385626 173.0082 187.6669 13.69261307630092"}}, "geometry": {"type": "Point", "coordinates": [104.46700968527551, 45.21228294463972]}}, {"type": "Feature", "properties": {"norad_id": 32332, "name": "FENGYUN 1C DEB", "group": "fengyun-1c-debris", "lat": -11.080304128703876, "lon": -141.34648156106843, "alt_km": 1015.5911631770696, "timestamp": "2025-12-12T09:49:09.017946+00:00", "meta": {"OBJECT_NAME": "FENGYUN 1C DEB", "OBJECT_ID": "1999-025CXZ", "EPOCH": "2025-12-11T22:34:14.488608", "MEAN_MOTION": 13.97127144, "ECCENTRICITY": 0.0284976, "INCLINATION": 99.1325, "RA_OF_ASC_NODE": 39.9925, "ARG_OF_PERICENTER": 315.0226, "MEAN_ANOMALY": 42.8168, "EPHEMERIS_TYPE": 0, "CLASSIFICATION_TYPE": "U", "NORAD_CAT_ID": 32332, "ELEMENT_SET_NO": 999, "REV_AT_EPOCH": 93025, "BSTAR": 0.0022707, "MEAN_MOTION_DOT": 4.432e-05, "MEAN_MOTION_DDOT": 0}, "tle": {"line1": "1 32332U 99025CXZ 25345.94044547  .00004432  00000+0  22707-2 0  9996", "line2": "2 32332  99.1325  39.9925 0284976 315.0226  42.8168 13.97127144930253"}}, "geometry": {"type": "Point", "coordinates": [-141.34648156106843, -11.080304128703876]}}, {"type": "Feature", "properties": {"norad_id": 32334, "name": "FENGYUN 1C DEB", "group": "fengyun-1c-debris", "lat": 21.40363343379017, "lon": 37.150818560702504, "alt_km": 895.6746478250789, "timestamp": "2025-12-12T09:49:09.017957+00:00", "meta": {"OBJECT_NAME": "FENGYUN 1C DEB", "OBJECT_ID": "1999-025CYB", "EPOCH": "2025-12-10T14:53:08.742912", "MEAN_MOTION": 14.01639218, "ECCENTRICITY": 0.006636, "INCLINATION": 99.2529, "RA_OF_ASC_NODE": 39.0008, "ARG_OF_PERICENTER": 287.0109, "MEAN_ANOMALY": 72.3791, "EPHEMERIS_TYPE": 0, "CLASSIFICATION_TYPE": "U", "NORAD_CAT_ID": 32334, "ELEMENT_SET_NO": 999, "REV_AT_EPOCH": 93910, "BSTAR": 0.0004821, "MEAN_MOTION_DOT": 6.98e-06, "MEAN_MOTION_DDOT": 0}, "tle": {"line1": "1 32334U 99025CYB 25344.62024008  .00000698  00000+0  48210-3 0  9990", "line2": "2 32334  99.2529  39.0008 0066360 287.0109  72.3791 14.01639218939107"}}, "geometry": {"type": "Point", "coordinates": [37.150818560702504, 21.40363343379017]}}, {"type": "Feature", "properties": {"norad_id": 32340, "name": "FENGYUN 1C DEB", "group": "fengyun-1c-debris", "lat": -24.864726379570254, "lon": 167.97030932002514, "alt_km": 652.0226567407744, "timestamp": "2025-12-12T09:49:09.017967+00:00", "meta": {"OBJECT_NAME": "FENGYUN 1C DEB", "OBJECT_ID": "1999-025CYH", "EPOCH": "2025-12-10T17:48:09.538848", "MEAN_MOTION": 14.74494196, "ECCENTRICITY": 0.00340453, "INCLINATION": 98.9824, "RA_OF_ASC_NODE": 350.327, "ARG_OF_PERICENTER": 300.429, "MEAN_ANOMALY": 59.3553, "EPHEMERIS_TYPE": 0, "CLASSIFICATION_TYPE": "U", "NORAD_CAT_ID": 32340, "ELEMENT_SET_NO": 999, "REV_AT_EPOCH": 97167, "BSTAR": 0.0040015959, "MEAN_MOTION_DOT": 0.0002689, "MEAN_MOTION_DDOT": 0}, "tle": {"line1": "1 32340U 99025CYH 25344.74177707  .00026890  00000+0  40016-2 0  9992", "line2": "2 32340  98.9824 350.3270 0034045 300.4290  59.3553 14.74494196971677"}}, "geometry": {"type": "Point", "coordinates": [167.97030932002514, -24.864726379570254]}}, {"type": "Feature", "properties": {"norad_id": 32342, "name": "FENGYUN 1C DEB", "group": "fengyun-1c-debris", "lat": 3.248968393613743, "lon": -5.470388859839668, "alt_km": 844.8869268961953, "timestamp": "2025-12-12T09:49:09.017978+00:00", "meta": {"OBJECT_NAME": "FENGYUN 1C DEB", "OBJECT_ID": "1999-025CYK", "EPOCH": "2025-12-11T23:52:12.709056", "MEAN_MOTION": 14.13398284, "ECCENTRICITY": 0.0007542, "INCLINATION": 98.6704, "RA_OF_ASC_NODE": 354.6242, "ARG_OF_PERICENTER": 353.6058, "MEAN_ANOMALY": 61.6836, "EPHEMERIS_TYPE": 0, "CLASSIFICATION_TYPE": "U", "NORAD_CAT_ID": 32342, "ELEMENT_SET_NO": 999, "REV_AT_EPOCH": 93707, "BSTAR": 0.00015441, "MEAN_MOTION_DOT": 2.47e-06, "MEAN_MOTION_DDOT": 0}, "tle": {"line1": "1 32342U 99025CYK 25345.99459154  .00000247  00000+0  15441-3 0  9994", "line2": "2 32342  98.6704 354.6242 0007542 353.6058  61.6836 14.13398284937073"}}, "geometry": {"type": "Point", "coordinates": [-5.470388859839668, 3.248968393613743]}}]}